HODOYOSHI-4             
1 40011U 14033B   26188.47476647  .00001877  00000+0  20841-3 0  9997
2 40011  97.5462  12.3183 0022134 236.4770 123.4333 14.88180153651820
DEIMOS-2                
1 40013U 14033D   26188.48024773  .00002020  00000+0  19565-3 0  9991
2 40013  97.5803  62.2535 0001130  83.4131 276.7218 14.93788797640758
HODOYOSHI-3             
1 40015U 14033F   26188.39388185  .00000772  00000+0  94917-4 0  9990
2 40015  97.6437 350.6235 0031369 288.8819  70.8997 14.85427120650621
SPOT 7                  
1 40053U 14034A   26188.52269927  .00000578  00000+0  12710-3 0  9994
2 40053  98.0613 250.4900 0001504  97.5661 262.5711 14.60977834640109
SKYSAT-B                
1 40072U 14037D   26188.36517727  .00001123  00000+0  12886-3 0  9995
2 40072  98.3848 148.4820 0004922 199.0980 161.0051 14.88079196648965
WORLDVIEW-3 (WV-3)      
1 40115U 14048A   26188.51600422  .00000712  00000+0  89607-4 0  9996
2 40115  97.8559 263.0678 0000690 167.0135 193.1098 14.85056010644922
GAOFEN-2                
1 40118U 14049A   26188.51407406  .00000245  00000+0  38530-4 0  9997
2 40118  98.0094 252.7016 0007671 157.1103 203.0452 14.80921519642242
YAOGAN-21               
1 40143U 14053A   26188.54888111  .00008268  00000+0  31717-3 0  9991
2 40143  97.1463 227.9129 0008704  33.7606 326.4186 15.26693924658062
YAOGAN-22               
1 40275U 14063A   26187.95896034 -.00000037  00000+0  25509-4 0  9995
2 40275 100.7751 339.5625 0006744 142.3559 217.8025 13.15531480562418
ASNARO                  
1 40298U 14070A   26188.50684269  .00007114  00000+0  33551-3 0  9992
2 40298  97.3440 264.0748 0006820 108.5096 251.6880 15.19755206647095
YAOGAN-24               
1 40310U 14072A   26188.55305082  .00001147  00000+0  17363-3 0  9990
2 40310  98.1518 326.0642 0013960 194.3449 165.7366 14.76114162626728
CBERS 4                 
1 40336U 14079A   26188.52954397  .00000340  00000+0  13298-3 0  9998
2 40336  98.3516 244.7223 0001122  49.6423 310.4861 14.35515852606877
YAOGAN-26               
1 40362U 14088A   26188.49902311  .00020688  00000+0  39399-3 0  9999
2 40362  97.0647 188.2424 0003178  16.8811 343.2546 15.48220457640840
SMAP                    
1 40376U 15003A   26188.45592448  .00000364  00000+0  79434-4 0  9998
2 40376  98.1279 195.2635 0001538  97.0614 263.0763 14.63384671610583
KOMPSAT-3A              
1 40536U 15014A   26188.51898561  .00022425  00000+0  31131-3 0  9993
2 40536  97.6895 181.3826 0056907 102.6396 258.1229 15.55090153624978
SENTINEL-2A             
1 40697U 15028A   26188.49440324  .00000170  00000+0  81435-4 0  9999
2 40697  98.5673 263.0578 0001227  95.1450 264.9873 14.30821664576634
GAOFEN-8                
1 40701U 15030A   26188.53668733  .00019772  00000+0  39592-3 0  9993
2 40701  97.6906  23.1381 0009830 119.5572 240.6658 15.46741509614597
CARBONITE 1 (CBNT-1)    
1 40718U 15032D   26188.48324847  .00001131  00000+0  14307-3 0  9999
2 40718  97.6523   5.7010 0013269 224.0546 135.9612 14.83652438592356
YAOGAN-27               
1 40878U 15040A   26188.47815682  .00000388  00000+0  11338-2 0  9999
2 40878 100.1167 173.9809 0008308 162.1698 197.9709 13.16072071520337
GAOFEN-9 01             
1 40894U 15047A   26188.50806218  .00000824  00000+0  10712-3 0  9994
2 40894  97.6266 223.2787 0028814  74.5325 285.9069 14.82924596583200
YAOGAN-28               
1 41026U 15064A   26188.56430878  .00004978  00000+0  18631-3 0  9994
2 41026  97.3097 326.4170 0011965 116.6161 243.6306 15.27693034593794
YAOGAN-29               
1 41038U 15069A   26188.48559295  .00000249  00000+0  37156-4 0  9999
2 41038  98.0020 217.1496 0001366  21.2255 338.9015 14.83101964573630
KENT RIDGE 1            
1 41167U 15077B   26188.13584312  .00003355  00000+0  10615-3 0  9992
2 41167  14.9789 117.6108 0008186 161.4249 198.6373 15.23253362584144
GAOFEN-4                
1 41194U 15083A   26188.52238817 -.00000320  00000+0  00000+0 0  9991
2 41194   0.4067  83.8496 0004251 117.0543  18.3547  1.00271459 38737
JASON-3                 
1 41240U 16002A   26188.50762036 -.00000059  00000+0  11830-4 0  9995
2 41240  66.0419  83.1152 0008253 271.4858  88.5215 12.87628188489867
SENTINEL-3A             
1 41335U 16011A   26188.48410257  .00000074  00000+0  48408-4 0  9999
2 41335  98.6240 255.5754 0001410  92.6218 267.5124 14.26738310540959
ZIYUAN 3-02 (ZY 3-02)   
1 41556U 16033A   26188.51444394  .00003415  00000+0  15508-3 0  9997
2 41556  97.3826 263.8979 0013295 212.4256 147.6165 15.21383591561071
CARTOSAT-2C             
1 41599U 16040A   26188.47853576  .00004638  00000+0  22314-3 0  9994
2 41599  97.4471 248.1766 0010122  68.6594 291.5720 15.19229231556793
SKYSAT-C1               
1 41601U 16040C   26187.62426663  .00007669  00000+0  21640-3 0  9995
2 41601  96.9556 218.2931 0001234  14.2930 345.8350 15.36647042560859
LAPAN-A3                
1 41603U 16040E   26188.48910645  .00002612  00000+0  83601-4 0  9999
2 41603  97.1498 183.9697 0008520 309.7142  50.3350 15.33243675557921
GAOFEN-3                
1 41727U 16049A   26188.48109836  .00000217  00000+0  78991-4 0  9992
2 41727  98.4016 195.9608 0001736  90.0011 270.1378 14.42218929521577
