OBJECT_NAME,OBJECT_ID,EPOCH,MEAN_MOTION,ECCENTRICITY,INCLINATION,RA_OF_ASC_NODE,ARG_OF_PERICENTER,MEAN_ANOMALY,EPHEMERIS_TYPE,CLASSIFICATION_TYPE,NORAD_CAT_ID,ELEMENT_SET_NO,REV_AT_EPOCH,BSTAR,MEAN_MOTION_DOT,MEAN_MOTION_DDOT
HODOYOSHI-4,2014-033B,2026-07-07T11:23:39.823008,14.88180153,.0022134,97.5462,12.3183,236.4770,123.4333,0,U,40011,999,65182,.20841E-3,.1877E-4,0
DEIMOS-2,2014-033D,2026-07-07T11:31:33.403872,14.93788797,.000113,97.5803,62.2535,83.4131,276.7218,0,U,40013,999,64075,.19565E-3,.202E-4,0
HODOYOSHI-3,2014-033F,2026-07-07T09:27:11.391840,14.85427120,.0031369,97.6437,350.6235,288.8819,70.8997,0,U,40015,999,65062,.94917E-4,.772E-5,0
SPOT 7,2014-034A,2026-07-07T12:32:41.216928,14.60977834,.0001504,98.0613,250.4900,97.5661,262.5711,0,U,40053,999,64010,.1271E-3,.578E-5,0
SKYSAT-B,2014-037D,2026-07-07T08:45:51.316128,14.88079196,.0004922,98.3848,148.4820,199.0980,161.0051,0,U,40072,999,64896,.12886E-3,.1123E-4,0
WORLDVIEW-3 (WV-3),2014-048A,2026-07-07T12:23:02.764608,14.85056010,.000069,97.8559,263.0678,167.0135,193.1098,0,U,40115,999,64492,.89607E-4,.712E-5,0
GAOFEN-2,2014-049A,2026-07-07T12:20:15.998784,14.80921519,.0007671,98.0094,252.7016,157.1103,203.0452,0,U,40118,999,64224,.3853E-4,.245E-5,0
YAOGAN-21,2014-053A,2026-07-07T13:10:23.327904,15.26693924,.0008704,97.1463,227.9129,33.7606,326.4186,0,U,40143,999,65806,.31717E-3,.8268E-4,0
YAOGAN-22,2014-063A,2026-07-06T23:00:54.173376,13.15531480,.0006744,100.7751,339.5625,142.3559,217.8025,0,U,40275,999,56241,.25509E-4,-.37E-6,0
ASNARO,2014-070A,2026-07-07T12:09:51.208416,15.19755206,.000682,97.3440,264.0748,108.5096,251.6880,0,U,40298,999,64709,.33551E-3,.7114E-4,0
YAOGAN-24,2014-072A,2026-07-07T13:16:23.590848,14.76114162,.001396,98.1518,326.0642,194.3449,165.7366,0,U,40310,999,62672,.17363E-3,.1147E-4,0
CBERS 4,2014-079A,2026-07-07T12:42:32.599008,14.35515852,.0001122,98.3516,244.7223,49.6423,310.4861,0,U,40336,999,60687,.13298E-3,.34E-5,0
YAOGAN-26,2014-088A,2026-07-07T11:58:35.596704,15.48220457,.0003178,97.0647,188.2424,16.8811,343.2546,0,U,40362,999,64084,.39399E-3,.20688E-3,0
SMAP,2015-003A,2026-07-07T10:56:31.875072,14.63384671,.0001538,98.1279,195.2635,97.0614,263.0763,0,U,40376,999,61058,.79434E-4,.364E-5,0
KOMPSAT-3A,2015-014A,2026-07-07T12:27:20.356704,15.55090153,.0056907,97.6895,181.3826,102.6396,258.1229,0,U,40536,999,62497,.31131E-3,.22425E-3,0
SENTINEL-2A,2015-028A,2026-07-07T11:51:56.439936,14.30821664,.0001227,98.5673,263.0578,95.1450,264.9873,0,U,40697,999,57663,.81435E-4,.17E-5,0
GAOFEN-8,2015-030A,2026-07-07T12:52:49.785312,15.46741509,.000983,97.6906,23.1381,119.5572,240.6658,0,U,40701,999,61459,.39592E-3,.19772E-3,0
CARBONITE 1 (CBNT-1),2015-032D,2026-07-07T11:35:52.667808,14.83652438,.0013269,97.6523,5.7010,224.0546,135.9612,0,U,40718,999,59235,.14307E-3,.1131E-4,0
YAOGAN-27,2015-040A,2026-07-07T11:28:32.749248,13.16072071,.0008308,100.1167,173.9809,162.1698,197.9709,0,U,40878,999,52033,.11338E-2,.388E-5,0
GAOFEN-9 01,2015-047A,2026-07-07T12:11:36.572352,14.82924596,.0028814,97.6266,223.2787,74.5325,285.9069,0,U,40894,999,58320,.10712E-3,.824E-5,0
YAOGAN-28,2015-064A,2026-07-07T13:32:36.278592,15.27693034,.0011965,97.3097,326.4170,116.6161,243.6306,0,U,41026,999,59379,.18631E-3,.4978E-4,0
YAOGAN-29,2015-069A,2026-07-07T11:39:15.230880,14.83101964,.0001366,98.0020,217.1496,21.2255,338.9015,0,U,41038,999,57363,.37156E-4,.249E-5,0
KENT RIDGE 1,2015-077B,2026-07-07T03:15:36.845568,15.23253362,.0008186,14.9789,117.6108,161.4249,198.6373,0,U,41167,999,58414,.10615E-3,.3355E-4,0
GAOFEN-4,2015-083A,2026-07-07T12:32:14.337888,1.00271459,.0004251,0.4067,83.8496,117.0543,18.3547,0,U,41194,999,3873,0,-.32E-5,0
JASON-3,2016-002A,2026-07-07T12:10:58.399104,12.87628188,.0008253,66.0419,83.1152,271.4858,88.5215,0,U,41240,999,48986,.1183E-4,-.59E-6,0
SENTINEL-3A,2016-011A,2026-07-07T11:37:06.462048,14.26738310,.000141,98.6240,255.5754,92.6218,267.5124,0,U,41335,999,54095,.48408E-4,.74E-6,0
ZIYUAN 3-02 (ZY 3-02),2016-033A,2026-07-07T12:20:47.956416,15.21383591,.0013295,97.3826,263.8979,212.4256,147.6165,0,U,41556,999,56107,.15508E-3,.3415E-4,0
CARTOSAT-2C,2016-040A,2026-07-07T11:29:05.489664,15.19229231,.0010122,97.4471,248.1766,68.6594,291.5720,0,U,41599,999,55679,.22314E-3,.4638E-4,0
SKYSAT-C1,2016-040C,2026-07-06T14:58:56.636832,15.36647042,.0001234,96.9556,218.2931,14.2930,345.8350,0,U,41601,999,56085,.2164E-3,.7669E-4,0
LAPAN-A3,2016-040E,2026-07-07T11:44:18.797280,15.33243675,.000852,97.1498,183.9697,309.7142,50.3350,0,U,41603,999,55792,.83601E-4,.2612E-4,0
GAOFEN-3,2016-049A,2026-07-07T11:32:46.898304,14.42218929,.0001736,98.4016,195.9608,90.0011,270.1378,0,U,41727,999,52157,.78991E-4,.217E-5,0
